FENGYUN 1C DEB          
1 37691U 99025ELG 26047.53369729  .00025342  00000+0  30884-2 0  9994
2 37691  98.3705 316.8342 0269289 306.6389  51.0321 14.60850134865933
FENGYUN 1C DEB          
1 37693U 99025ELJ 26065.22486193  .00001398  00000+0  81673-3 0  9995
2 37693  98.6978  67.0419 0071057 197.8459 222.8137 14.08703266633247
FENGYUN 1C DEB          
1 37707U 99025ELY 26061.28615918  .00002860  00000+0  56854-3 0  9990
2 37707 100.2220  88.1489 0142030 153.7830 267.1650 14.57001175867243
FENGYUN 1C DEB          
1 37712U 99025EMD 26061.20169052  .00001649  00000+0  55427-3 0  9990
2 37712  98.8263 207.1560 0080113 118.6114  55.0095 14.36732831651019
FENGYUN 1C DEB          
1 37714U 99025EMF 26061.26292750  .00006571  00000+0  23749-2 0  9990
2 37714  98.8918 180.0227 0049711 207.5721 152.2825 14.33170876586489
FENGYUN 1C DEB          
1 37715U 99025EMG 26061.28155157  .00000550  00000+0  41399-3 0  9995
2 37715  98.9572  71.8049 0112813 253.4868 163.8985 13.95560847589130
FENGYUN 1C DEB          
1 37717U 99025EMJ 26062.15227060  .00038398  00000+0  29579-2 0  9993
2 37717  98.7471  32.2792 0047346 201.9381 221.5838 15.00626108906010
FENGYUN 1C DEB          
1 37719U 99025EML 26036.36375233  .00008805  00000+0  19465-2 0  9998
2 37719  99.4955  74.8989 0044597  97.7515 281.0424 14.56910924 10348
FENGYUN 1C DEB          
1 37900U 99025EMZ 26063.11540545  .00003736  00000+0  19865-2 0  9995
2 37900 102.2937 172.8961 0207953  34.1524 327.2810 14.03970808609563
FENGYUN 1C DEB          
1 37902U 99025ENB 26063.04507719  .00002182  00000+0  24106-2 0  9993
2 37902  98.6918 278.4528 0318554  96.8923 266.8561 13.52979666640764
FENGYUN 1C DEB          
1 37906U 99025ENF 26064.37976080  .00000834  00000+0  75395-3 0  9994
2 37906  99.5945 111.5477 0163265 171.1953 259.2961 13.80923534605962
FENGYUN 1C DEB          
1 37907U 99025ENG 26063.55609962  .00005822  00000+0  24851-2 0  9998
2 37907  99.0804 184.2158 0057139 308.7621  50.8459 14.24552997844374
FENGYUN 1C DEB          
1 37908U 99025ENH 26059.88597114  .00001339  00000+0  45592-3 0  9990
2 37908  99.1423 101.6282 0072712 289.6745  69.6604 14.36865686651834
FENGYUN 1C DEB          
1 37918U 99025ENT 26063.83576090  .00003081  00000+0  10842-2 0  9996
2 37918  99.0392  21.9925 0056719  43.4446 317.1186 14.34742713 47197
FENGYUN 1C DEB          
1 37919U 99025ENU 26064.80412182  .00001351  00000+0  56740-3 0  9992
2 37919  99.0662  10.6886 0049108 134.7360 225.7833 14.26995280660938
FENGYUN 1C DEB          
1 37921U 99025ENW 26064.91052852  .00000417  00000+0  33146-3 0  9998
2 37921  99.0096 109.1372 0082895 230.1652 129.2195 13.95209930643071
