[{"OBJECT_NAME":"FENGYUN 1C DEB","OBJECT_ID":"1999-025ELG","EPOCH":"2026-02-16T12:48:31.445856","MEAN_MOTION":14.60850134,"ECCENTRICITY":0.0269289,"INCLINATION":98.3705,"RA_OF_ASC_NODE":316.8342,"ARG_OF_PERICENTER":306.6389,"MEAN_ANOMALY":51.0321,"EPHEMERIS_TYPE":0,"CLASSIFICATION_TYPE":"U","NORAD_CAT_ID":37691,"ELEMENT_SET_NO":999,"REV_AT_EPOCH":86593,"BSTAR":0.0030884,"MEAN_MOTION_DOT":0.00025342,"MEAN_MOTION_DDOT":0},{"OBJECT_NAME":"FENGYUN 1C DEB","OBJECT_ID":"1999-025ELJ","EPOCH":"2026-03-06T05:23:48.070752","MEAN_MOTION":14.08703266,"ECCENTRICITY":0.00710572,"INCLINATION":98.6978,"RA_OF_ASC_NODE":67.0419,"ARG_OF_PERICENTER":197.8459,"MEAN_ANOMALY":222.8137,"EPHEMERIS_TYPE":0,"CLASSIFICATION_TYPE":"U","NORAD_CAT_ID":37693,"ELEMENT_SET_NO":999,"REV_AT_EPOCH":63324,"BSTAR":0.00081673289,"MEAN_MOTION_DOT":1.398e-5,"MEAN_MOTION_DDOT":0},{"OBJECT_NAME":"FENGYUN 1C DEB","OBJECT_ID":"1999-025ELY","EPOCH":"2026-03-02T06:52:04.153152","MEAN_MOTION":14.57001175,"ECCENTRICITY":0.01420307,"INCLINATION":100.222,"RA_OF_ASC_NODE":88.1489,"ARG_OF_PERICENTER":153.783,"MEAN_ANOMALY":267.165,"EPHEMERIS_TYPE":0,"CLASSIFICATION_TYPE":"U","NORAD_CAT_ID":37707,"ELEMENT_SET_NO":999,"REV_AT_EPOCH":86724,"BSTAR":0.00056854383,"MEAN_MOTION_DOT":2.86e-5,"MEAN_MOTION_DDOT":0},{"OBJECT_NAME":"FENGYUN 1C DEB","OBJECT_ID":"1999-025EMD","EPOCH":"2026-03-02T04:50:26.060928","MEAN_MOTION":14.36732831,"ECCENTRICITY":0.0080113,"INCLINATION":98.8263,"RA_OF_ASC_NODE":207.156,"ARG_OF_PERICENTER":118.6114,"MEAN_ANOMALY":55.0095,"EPHEMERIS_TYPE":0,"CLASSIFICATION_TYPE":"U","NORAD_CAT_ID":37712,"ELEMENT_SET_NO":999,"REV_AT_EPOCH":65101,"BSTAR":0.00055427477,"MEAN_MOTION_DOT":1.649e-5,"MEAN_MOTION_DDOT":0},{"OBJECT_NAME":"FENGYUN 1C DEB","OBJECT_ID":"1999-025EMF","EPOCH":"2026-03-02T06:18:36.936000","MEAN_MOTION":14.33170876,"ECCENTRICITY":0.0049711,"INCLINATION":98.8918,"RA_OF_ASC_NODE":180.0227,"ARG_OF_PERICENTER":207.5721,"MEAN_ANOMALY":152.2825,"EPHEMERIS_TYPE":0,"CLASSIFICATION_TYPE":"U","NORAD_CAT_ID":37714,"ELEMENT_SET_NO":999,"REV_AT_EPOCH":58648,"BSTAR":0.002374877,"MEAN_MOTION_DOT":6.571e-5,"MEAN_MOTION_DDOT":0},{"OBJECT_NAME":"FENGYUN 1C DEB","OBJECT_ID":"1999-025EMG","EPOCH":"2026-03-02T06:45:26.055648","MEAN_MOTION":13.95560847,"ECCENTRICITY":0.01128132,"INCLINATION":98.9572,"RA_OF_ASC_NODE":71.8049,"ARG_OF_PERICENTER":253.4868,"MEAN_ANOMALY":163.8985,"EPHEMERIS_TYPE":0,"CLASSIFICATION_TYPE":"U","NORAD_CAT_ID":37715,"ELEMENT_SET_NO":999,"REV_AT_EPOCH":58913,"BSTAR":0.00041398537,"MEAN_MOTION_DOT":5.5e-6,"MEAN_MOTION_DDOT":0},{"OBJECT_NAME":"FENGYUN 1C DEB","OBJECT_ID":"1999-025EMJ","EPOCH":"2026-03-03T03:39:16.179840","MEAN_MOTION":15.00626108,"ECCENTRICITY":0.00473467,"INCLINATION":98.7471,"RA_OF_ASC_NODE":32.2792,"ARG_OF_PERICENTER":201.9381,"MEAN_ANOMALY":221.5838,"EPHEMERIS_TYPE":0,"CLASSIFICATION_TYPE":"U","NORAD_CAT_ID":37717,"ELEMENT_SET_NO":999,"REV_AT_EPOCH":90601,"BSTAR":0.0029579179,"MEAN_MOTION_DOT":0.00038398,"MEAN_MOTION_DDOT":0},{"OBJECT_NAME":"FENGYUN 1C DEB","OBJECT_ID":"1999-025EML","EPOCH":"2026-02-05T08:43:48.201312","MEAN_MOTION":14.56910924,"ECCENTRICITY":0.00445972,"INCLINATION":99.4955,"RA_OF_ASC_NODE":74.8989,"ARG_OF_PERICENTER":97.7515,"MEAN_ANOMALY":281.0424,"EPHEMERIS_TYPE":0,"CLASSIFICATION_TYPE":"U","NORAD_CAT_ID":37719,"ELEMENT_SET_NO":999,"REV_AT_EPOCH":1034,"BSTAR":0.0019465401,"MEAN_MOTION_DOT":8.805e-5,"MEAN_MOTION_DDOT":0},{"OBJECT_NAME":"FENGYUN 1C DEB","OBJECT_ID":"1999-025EMZ","EPOCH":"2026-03-04T02:46:11.030880","MEAN_MOTION":14.03970808,"ECCENTRICITY":0.02079538,"INCLINATION":102.2937,"RA_OF_ASC_NODE":172.8961,"ARG_OF_PERICENTER":34.1524,"MEAN_ANOMALY":327.281,"EPHEMERIS_TYPE":0,"CLASSIFICATION_TYPE":"U","NORAD_CAT_ID":37900,"ELEMENT_SET_NO":999,"REV_AT_EPOCH":60956,"BSTAR":0.0019865079,"MEAN_MOTION_DOT":3.736e-5,"MEAN_MOTION_DDOT":0},{"OBJECT_NAME":"FENGYUN 1C DEB","OBJECT_ID":"1999-025ENB","EPOCH":"2026-03-04T01:04:54.669216","MEAN_MOTION":13.52979666,"ECCENTRICITY":0.03185544,"INCLINATION":98.6918,"RA_OF_ASC_NODE":278.4528,"ARG_OF_PERICENTER":96.8923,"MEAN_ANOMALY":266.8561,"EPHEMERIS_TYPE":0,"CLASSIFICATION_TYPE":"U","NORAD_CAT_ID":37902,"ELEMENT_SET_NO":999,"REV_AT_EPOCH":64076,"BSTAR":0.0024106406,"MEAN_MOTION_DOT":2.182e-5,"MEAN_MOTION_DDOT":0},{"OBJECT_NAME":"FENGYUN 1C DEB","OBJECT_ID":"1999-025ENF","EPOCH":"2026-03-05T09:06:51.333120","MEAN_MOTION":13.80923534,"ECCENTRICITY":0.0163265,"INCLINATION":99.5945,"RA_OF_ASC_NODE":111.5477,"ARG_OF_PERICENTER":171.1953,"MEAN_ANOMALY":259.2961,"EPHEMERIS_TYPE":0,"CLASSIFICATION_TYPE":"U","NORAD_CAT_ID":37906,"ELEMENT_SET_NO":999,"REV_AT_EPOCH":60596,"BSTAR":0.00075395,"MEAN_MOTION_DOT":8.34e-6,"MEAN_MOTION_DDOT":0},{"OBJECT_NAME":"FENGYUN 1C DEB","OBJECT_ID":"1999-025ENG","EPOCH":"2026-03-04T13:20:47.007168","MEAN_MOTION":14.24552997,"ECCENTRICITY":0.0057139,"INCLINATION":99.0804,"RA_OF_ASC_NODE":184.2158,"ARG_OF_PERICENTER":308.7621,"MEAN_ANOMALY":50.8459,"EPHEMERIS_TYPE":0,"CLASSIFICATION_TYPE":"U","NORAD_CAT_ID":37907,"ELEMENT_SET_NO":999,"REV_AT_EPOCH":84437,"BSTAR":0.0024851,"MEAN_MOTION_DOT":5.822e-5,"MEAN_MOTION_DDOT":0},{"OBJECT_NAME":"FENGYUN 1C DEB","OBJECT_ID":"1999-025ENH","EPOCH":"2026-02-28T21:15:47.906496","MEAN_MOTION":14.36865686,"ECCENTRICITY":0.0072712,"INCLINATION":99.1423,"RA_OF_ASC_NODE":101.6282,"ARG_OF_PERICENTER":289.6745,"MEAN_ANOMALY":69.6604,"EPHEMERIS_TYPE":0,"CLASSIFICATION_TYPE":"U","NORAD_CAT_ID":37908,"ELEMENT_SET_NO":999,"REV_AT_EPOCH":65183,"BSTAR":0.00045592,"MEAN_MOTION_DOT":1.339e-5,"MEAN_MOTION_DDOT":0},{"OBJECT_NAME":"FENGYUN 1C DEB","OBJECT_ID":"1999-025ENT","EPOCH":"2026-03-04T20:03:29.741760","MEAN_MOTION":14.34742713,"ECCENTRICITY":0.00567199,"INCLINATION":99.0392,"RA_OF_ASC_NODE":21.9925,"ARG_OF_PERICENTER":43.4446,"MEAN_ANOMALY":317.1186,"EPHEMERIS_TYPE":0,"CLASSIFICATION_TYPE":"U","NORAD_CAT_ID":37918,"ELEMENT_SET_NO":999,"REV_AT_EPOCH":4719,"BSTAR":0.0010841613,"MEAN_MOTION_DOT":3.081e-5,"MEAN_MOTION_DDOT":0},{"OBJECT_NAME":"FENGYUN 1C DEB","OBJECT_ID":"1999-025ENU","EPOCH":"2026-03-05T19:17:56.125248","MEAN_MOTION":14.2699528,"ECCENTRICITY":0.00491084,"INCLINATION":99.0662,"RA_OF_ASC_NODE":10.6886,"ARG_OF_PERICENTER":134.736,"MEAN_ANOMALY":225.7833,"EPHEMERIS_TYPE":0,"CLASSIFICATION_TYPE":"U","NORAD_CAT_ID":37919,"ELEMENT_SET_NO":999,"REV_AT_EPOCH":66093,"BSTAR":0.00056740245,"MEAN_MOTION_DOT":1.351e-5,"MEAN_MOTION_DDOT":0},{"OBJECT_NAME":"FENGYUN 1C DEB","OBJECT_ID":"1999-025ENW","EPOCH":"2026-03-05T21:51:09.664128","MEAN_MOTION":13.9520993,"ECCENTRICITY":0.00828957,"INCLINATION":99.0096,"RA_OF_ASC_NODE":109.1372,"ARG_OF_PERICENTER":230.1652,"MEAN_ANOMALY":129.2195,"EPHEMERIS_TYPE":0,"CLASSIFICATION_TYPE":"U","NORAD_CAT_ID":37921,"ELEMENT_SET_NO":999,"REV_AT_EPOCH":64307,"BSTAR":0.0003314593,"MEAN_MOTION_DOT":4.17e-6,"MEAN_MOTION_DDOT":0}]
